STARLINK-32189          
1 60317U 24133S   26068.90637793 -.00000961  00000+0 -20334-4 0  9999
2 60317  53.1591 296.0444 0001156  85.3535 274.7597 15.30197277 91760
NUSHSAT1                
1 63211U 25052B   26068.64700493  .00023034  00000+0  74857-3 0  9997
2 63211  97.4095 325.7239 0005501  84.7512 275.4357 15.31903202 54882
